{"type": "FeatureCollection", "features": [ {"type": "Feature", "properties": {"norad_id": 66568, "name": "STARLINK-35803", "group": "last-30-days", "lat": 42.95616642327647, "lon": -156.7938736558719, "alt_km": 409.7155731461762, "timestamp": "2025-12-13T16:48:31.465257+00:00", "meta": {"OBJECT_NAME": "STARLINK-35803", "OBJECT_ID": "2025-268M", "EPOCH": "2025-12-12T20:00:01.999872", "MEAN_MOTION": 15.50644849, "ECCENTRICITY": 0.0001643, "INCLINATION": 43.0001, "RA_OF_ASC_NODE": 120.6013, "ARG_OF_PERICENTER": 282.7103, "MEAN_ANOMALY": 0.2057, "EPHEMERIS_TYPE": 0, "CLASSIFICATION_TYPE": "U", "NORAD_CAT_ID": 66568, "ELEMENT_SET_NO": 999, "REV_AT_EPOCH": 468, "BSTAR": -0.0021195054, "MEAN_MOTION_DOT": -0.00123039, "MEAN_MOTION_DDOT": 0}, "tle": {"line1": "1 66568U 25268M   25346.83335648 -.00123039  00000+0 -21195-2 0  9993", "line2": "2 66568  43.0001 120.6013 0001643 282.7103   0.2057 15.50644849  4689"}}, "geometry": {"type": "Point", "coordinates": [-156.7938736558719, 42.95616642327647]}}, {"type": "Feature", "properties": {"norad_id": 66569, "name": "STARLINK-35835", "group": "last-30-days", "lat": 42.97919296226833, "lon": -154.14900259297107, "alt_km": 409.7380972315468, "timestamp": "2025-12-13T16:48:31.465267+00:00", "meta": {"OBJECT_NAME": "STARLINK-35835", "OBJECT_ID": "2025-268N", "EPOCH": "2025-12-12T20:00:01.999872", "MEAN_MOTION": 15.50617099, "ECCENTRICITY": 0.00017115, "INCLINATION": 43.0001, "RA_OF_ASC_NODE": 120.5962, "ARG_OF_PERICENTER": 269.8708, "MEAN_ANOMALY": 14.9869, "EPHEMERIS_TYPE": 0, "CLASSIFICATION_TYPE": "U", "NORAD_CAT_ID": 66569, "ELEMENT_SET_NO": 999, "REV_AT_EPOCH": 468, "BSTAR": -0.0015764404, "MEAN_MOTION_DOT": -0.00091873, "MEAN_MOTION_DDOT": 0}, "tle": {"line1": "1 66569U 25268N   25346.83335648 -.00091873  00000+0 -15764-2 0  9999", "line2": "2 66569  43.0001 120.5962 0001711 269.8708  14.9869 15.50617099  4685"}}, "geometry": {"type": "Point", "coordinates": [-154.14900259297107, 42.97919296226833]}}, {"type": "Feature", "properties": {"norad_id": 66570, "name": "STARLINK-35834", "group": "last-30-days", "lat": 42.94328177963486, "lon": -151.58644515057426, "alt_km": 409.6938913226968, "timestamp": "2025-12-13T16:48:31.465278+00:00", "meta": {"OBJECT_NAME": "STARLINK-35834", "OBJECT_ID": "2025-268P", "EPOCH": "2025-12-12T20:00:01.999872", "MEAN_MOTION": 15.50649758, "ECCENTRICITY": 0.0001444, "INCLINATION": 43.0002, "RA_OF_ASC_NODE": 120.5913, "ARG_OF_PERICENTER": 260.297, "MEAN_ANOMALY": 26.4566, "EPHEMERIS_TYPE": 0, "CLASSIFICATION_TYPE": "U", "NORAD_CAT_ID": 66570, "ELEMENT_SET_NO": 999, "REV_AT_EPOCH": 468, "BSTAR": -0.0023172141, "MEAN_MOTION_DOT": -0.00134314, "MEAN_MOTION_DDOT": 0}, "tle": {"line1": "1 66570U 25268P   25346.83335648 -.00134314  00000+0 -23172-2 0  9991", "line2": "2 66570  43.0002 120.5913 0001444 260.2970  26.4566 15.50649758  4682"}}, "geometry": {"type": "Point", "coordinates": [-151.58644515057426, 42.94328177963486]}}, {"type": "Feature", "properties": {"norad_id": 66571, "name": "STARLINK-35836", "group": "last-30-days", "lat": 42.84148820338033, "lon": -148.8536422353807, "alt_km": 409.5715364575999, "timestamp": "2025-12-13T16:48:31.465290+00:00", "meta": {"OBJECT_NAME": "STARLINK-35836", "OBJECT_ID": "2025-268Q", "EPOCH": "2025-12-12T20:00:01.999872", "MEAN_MOTION": 15.50592722, "ECCENTRICITY": 0.00017082, "INCLINATION": 43.0002, "RA_OF_ASC_NODE": 120.5864, "ARG_OF_PERICENTER": 283.1071, "MEAN_ANOMALY": 5.591, "EPHEMERIS_TYPE": 0, "CLASSIFICATION_TYPE": "U", "NORAD_CAT_ID": 66571, "ELEMENT_SET_NO": 999, "REV_AT_EPOCH": 468, "BSTAR": -0.00085406017, "MEAN_MOTION_DOT": -0.00050151, "MEAN_MOTION_DDOT": 0}, "tle": {"line1": "1 66571U 25268Q   25346.83335648 -.00050151  00000+0 -85406-3 0  9997", "line2": "2 66571  43.0002 120.5864 0001708 283.1071   5.5910 15.50592722  4686"}}, "geometry": {"type": "Point", "coordinates": [-148.8536422353807, 42.84148820338033]}}, {"type": "Feature", "properties": {"norad_id": 66572, "name": "STARLINK-35870", "group": "last-30-days", "lat": 42.68792852218667, "lon": -146.31353289458767, "alt_km": 409.70932095438457, "timestamp": "2025-12-13T16:48:31.465300+00:00", "meta": {"OBJECT_NAME": "STARLINK-35870", "OBJECT_ID": "2025-268R", "EPOCH": "2025-12-12T20:00:01.999872", "MEAN_MOTION": 15.50613092, "ECCENTRICITY": 0.00016071, "INCLINATION": 43.0002, "RA_OF_ASC_NODE": 120.5827, "ARG_OF_PERICENTER": 272.0893, "MEAN_ANOMALY": 18.5258, "EPHEMERIS_TYPE": 0, "CLASSIFICATION_TYPE": "U", "NORAD_CAT_ID": 66572, "ELEMENT_SET_NO": 999, "REV_AT_EPOCH": 468, "BSTAR": -0.0015162117, "MEAN_MOTION_DOT": -0.00088402, "MEAN_MOTION_DDOT": 0}, "tle": {"line1": "1 66572U 25268R   25346.83335648 -.00088402  00000+0 -15162-2 0  9999", "line2": "2 66572  43.0002 120.5827 0001607 272.0893  18.5258 15.50613092  4686"}}, "geometry": {"type": "Point", "coordinates": [-146.31353289458767, 42.68792852218667]}}, {"type": "Feature", "properties": {"norad_id": 66573, "name": "STARLINK-35650", "group": "last-30-days", "lat": 42.441321919899515, "lon": -143.40462827865477, "alt_km": 408.8778826745729, "timestamp": "2025-12-13T16:48:31.465310+00:00", "meta": {"OBJECT_NAME": "STARLINK-35650", "OBJECT_ID": "2025-268S", "EPOCH": "2025-12-12T20:00:01.999872", "MEAN_MOTION": 15.50494369, "ECCENTRICITY": 0.00014639, "INCLINATION": 43.0002, "RA_OF_ASC_NODE": 120.5766, "ARG_OF_PERICENTER": 278.9023, "MEAN_ANOMALY": 13.6688, "EPHEMERIS_TYPE": 0, "CLASSIFICATION_TYPE": "U", "NORAD_CAT_ID": 66573, "ELEMENT_SET_NO": 999, "REV_AT_EPOCH": 468, "BSTAR": 0.0020870866, "MEAN_MOTION_DOT": 0.00123677, "MEAN_MOTION_DDOT": 0}, "tle": {"line1": "1 66573U 25268S   25346.83335648  .00123677  00000+0  20871-2 0  9995", "line2": "2 66573  43.0002 120.5766 0001463 278.9023  13.6688 15.50494369  4686"}}, "geometry": {"type": "Point", "coordinates": [-143.40462827865477, 42.441321919899515]}}, {"type": "Feature", "properties": {"norad_id": 66574, "name": "STARLINK-35812", "group": "last-30-days", "lat": 42.20030875929842, "lon": -141.17139648233874, "alt_km": 409.68323026623966, "timestamp": "2025-12-13T16:48:31.465323+00:00", "meta": {"OBJECT_NAME": "STARLINK-35812", "OBJECT_ID": "2025-268T", "EPOCH": "2025-12-12T20:00:01.999872", "MEAN_MOTION": 15.50625026, "ECCENTRICITY": 0.00014264, "INCLINATION": 43.0003, "RA_OF_ASC_NODE": 120.5714, "ARG_OF_PERICENTER": 272.467, "MEAN_ANOMALY": 21.9696, "EPHEMERIS_TYPE": 0, "CLASSIFICATION_TYPE": "U", "NORAD_CAT_ID": 66574, "ELEMENT_SET_NO": 999, "REV_AT_EPOCH": 468, "BSTAR": -0.0017022193, "MEAN_MOTION_DOT": -0.0009911, "MEAN_MOTION_DDOT": 0}, "tle": {"line1": "1 66574U 25268T   25346.83335648 -.00099110  00000+0 -17022-2 0  9996", "line2": "2 66574  43.0003 120.5714 0001426 272.4670  21.9696 15.50625026  4684"}}, "geometry": {"type": "Point", "coordinates": [-141.17139648233874, 42.20030875929842]}}, {"type": "Feature", "properties": {"norad_id": 66575, "name": "STARLINK-35810", "group": "last-30-days", "lat": 41.86166713446367, "lon": -138.5685865577124, "alt_km": 409.6231781495926, "timestamp": "2025-12-13T16:48:31.465334+00:00", "meta": {"OBJECT_NAME": "STARLINK-35810", "OBJECT_ID": "2025-268U", "EPOCH": "2025-12-12T20:00:01.999872", "MEAN_MOTION": 15.5059521, "ECCENTRICITY": 0.00015191, "INCLINATION": 43.0002, "RA_OF_ASC_NODE": 120.5675, "ARG_OF_PERICENTER": 287.5356, "MEAN_ANOMALY": 8.8288, "EPHEMERIS_TYPE": 0, "CLASSIFICATION_TYPE": "U", "NORAD_CAT_ID": 66575, "ELEMENT_SET_NO": 999, "REV_AT_EPOCH": 468, "BSTAR": -0.00091983174, "MEAN_MOTION_DOT": -0.00053964, "MEAN_MOTION_DDOT": 0}, "tle": {"line1": "1 66575U 25268U   25346.83335648 -.00053964  00000+0 -91983-3 0  9993", "line2": "2 66575  43.0002 120.5675 0001519 287.5356   8.8288 15.50595210  4683"}}, "geometry": {"type": "Point", "coordinates": [-138.5685865577124, 41.86166713446367]}}, {"type": "Feature", "properties": {"norad_id": 66576, "name": "STARLINK-35814", "group": "last-30-days", "lat": 41.48597400554248, "lon": -136.12386802377372, "alt_km": 409.78065041567334, "timestamp": "2025-12-13T16:48:31.465344+00:00", "meta": {"OBJECT_NAME": "STARLINK-35814", "OBJECT_ID": "2025-268V", "EPOCH": "2025-12-12T20:00:01.999872", "MEAN_MOTION": 15.50628497, "ECCENTRICITY": 0.00013959, "INCLINATION": 43.0003, "RA_OF_ASC_NODE": 120.5622, "ARG_OF_PERICENTER": 272.7361, "MEAN_ANOMALY": 25.5307, "EPHEMERIS_TYPE": 0, "CLASSIFICATION_TYPE": "U", "NORAD_CAT_ID": 66576, "ELEMENT_SET_NO": 999, "REV_AT_EPOCH": 468, "BSTAR": -0.0017754638, "MEAN_MOTION_DOT": -0.00103318, "MEAN_MOTION_DDOT": 0}, "tle": {"line1": "1 66576U 25268V   25346.83335648 -.00103318  00000+0 -17755-2 0  9997", "line2": "2 66576  43.0003 120.5622 0001395 272.7361  25.5307 15.50628497  4683"}}, "geometry": {"type": "Point", "coordinates": [-136.12386802377372, 41.48597400554248]}}, {"type": "Feature", "properties": {"norad_id": 66577, "name": "STARLINK-35815", "group": "last-30-days", "lat": 41.03659154101106, "lon": -133.59109693045704, "alt_km": 409.8003482787144, "timestamp": "2025-12-13T16:48:31.465354+00:00", "meta": {"OBJECT_NAME": "STARLINK-35815", "OBJECT_ID": "2025-268W", "EPOCH": "2025-12-12T20:00:01.999872", "MEAN_MOTION": 15.50599502, "ECCENTRICITY": 0.00015277, "INCLINATION": 43.0003, "RA_OF_ASC_NODE": 120.5575, "ARG_OF_PERICENTER": 285.8694, "MEAN_ANOMALY": 14.3273, "EPHEMERIS_TYPE": 0, "CLASSIFICATION_TYPE": "U", "NORAD_CAT_ID": 66577, "ELEMENT_SET_NO": 999, "REV_AT_EPOCH": 468, "BSTAR": -0.0010556277, "MEAN_MOTION_DOT": -0.00061829, "MEAN_MOTION_DDOT": 0}, "tle": {"line1": "1 66577U 25268W   25346.83335648 -.00061829  00000+0 -10556-2 0  9990", "line2": "2 66577  43.0003 120.5575 0001527 285.8694  14.3273 15.50599502  4684"}}, "geometry": {"type": "Point", "coordinates": [-133.59109693045704, 41.03659154101106]}}]}